NORAD_CAT_ID,OBJECT_NAME,OBJECT_TYPE,EPOCH,MEAN_MOTION,ECCENTRICITY,INCLINATION,RA_OF_ASC_NODE,ARG_OF_PERICENTER,MEAN_ANOMALY,BSTAR,MEAN_MOTION_DOT,MEAN_MOTION_DDOT,TLE_LINE0,TLE_LINE1,TLE_LINE2,SEMIMAJOR_AXIS,PERIOD,APOGEE,PERIGEE,DECAYED
51897.0,STARLINK-3598,PAYLOAD,2023-04-24 03:53:04,15.088629,0.0001421,53.2193,35.1186,87.7172,272.3983,0.00034404,5.195e-05,0.0,0 STARLINK-3598,1 51897U 22022AX  23114.16186139  .00005195  00000-0  34404-3 0  9992,2 51897  53.2193  35.1186 0001421  87.7172 272.3983 15.08862900 64653,6917.81,95.436,540.658,538.692,0.0
51897.0,STARLINK-3598,PAYLOAD,2023-04-24 05:28:27,15.08867579,0.0001176,53.2191,34.8205,98.6676,261.4449,0.0003968,6.038e-05,0.0,0 STARLINK-3598,1 51897U 22022AX  23114.22809706  .00006038  00000-0  39680-3 0  9999,2 51897  53.2191  34.8205 0001176  98.6676 261.4449 15.08867579 64660,6917.796,95.436,540.475,538.848,0.0
51897.0,STARLINK-3598,PAYLOAD,2023-04-25 02:08:26,15.08885659,0.0001219,53.2184,30.9548,80.3417,279.7713,0.00063029,9.77e-05,0.0,0 STARLINK-3598,1 51897U 22022AX  23115.08919821  .00009770  00000-0  63029-3 0  9994,2 51897  53.2184  30.9548 0001219  80.3417 279.7713 15.08885659 64797,6917.741,95.435,540.449,538.763,0.0
51897.0,STARLINK-3598,PAYLOAD,2023-04-26 05:10:03,15.08793423,0.0001238,53.2172,25.8998,93.7454,266.368,-0.00087791,-0.00014215,0.0,0 STARLINK-3598,1 51897U 22022AX  23116.21532133 -.00014215  00000-0 -87791-3 0  9991,2 51897  53.2172  25.8998 0001238  93.7454 266.3680 15.08793423 64967,6918.023,95.441,540.744,539.031,0.0
51897.0,STARLINK-3598,PAYLOAD,2023-04-26 17:53:09,15.08815033,0.0001433,53.2181,23.5228,95.5359,264.5796,-5.4371e-05,-1.152e-05,0.0,0 STARLINK-3598,1 51897U 22022AX  23116.74525167 -.00001152  00000-0 -54371-4 0  9993,2 51897  53.2181  23.5228 0001433  95.5359 264.5796 15.08815033 65049,6917.957,95.439,540.813,538.83,0.0
51897.0,STARLINK-3598,PAYLOAD,2023-04-27 03:25:27,15.08828704,0.0001513,53.2177,21.7393,88.4341,271.6825,-0.00011306,-2.086e-05,0.0,0 STARLINK-3598,1 51897U 22022AX  23117.14267914 -.00002086  00000-0 -11306-3 0  9998,2 51897  53.2177  21.7393 0001513  88.4341 271.6825 15.08828704 65106,6917.915,95.438,540.827,538.733,0.0
51897.0,STARLINK-3598,PAYLOAD,2023-04-28 00:05:28,15.08856095,0.0001301,53.2172,17.8745,92.666,267.4481,0.0010402,0.00016313,0.0,0 STARLINK-3598,1 51897U 22022AX  23118.00380172  .00016313  00000-0  10402-2 0  9997,2 51897  53.2172  17.8745 0001301  92.6660 267.4481 15.08856095 65233,6917.831,95.437,540.596,538.796,0.0
51897.0,STARLINK-3598,PAYLOAD,2023-04-28 03:16:14,15.08872612,0.000135,53.2173,17.2792,96.6182,263.4964,0.0011445,0.0001799,0.0,0 STARLINK-3598,1 51897U 22022AX  23118.13627732  .00017990  00000-0  11445-2 0  9997,2 51897  53.2173  17.2792 0001350  96.6182 263.4964 15.08872612 65254,6917.781,95.435,540.58,538.712,0.0
51897.0,STARLINK-3598,PAYLOAD,2023-04-28 17:34:42,15.08852171,8.04e-05,53.218,14.6029,92.3174,267.791,-3.2874e-05,-8.11e-06,0.0,0 STARLINK-3598,1 51897U 22022AX  23118.73243638 -.00000811  00000-0 -32874-4 0  9999,2 51897  53.2180  14.6029 0000804  92.3174 267.7910 15.08852171 65349,6917.843,95.437,540.264,539.152,0.0
51897.0,STARLINK-3598,PAYLOAD,2023-04-29 01:31:38,15.08851219,8.68e-05,53.218,13.1165,98.3685,261.7405,0.00032066,4.821e-05,0.0,0 STARLINK-3598,1 51897U 22022AX  23119.06363481  .00004821  00000-0  32066-3 0  9990,2 51897  53.2180  13.1165 0000868  98.3685 261.7405 15.08851219 65397,6917.846,95.437,540.312,539.111,0.0
51897.0,STARLINK-3598,PAYLOAD,2023-04-29 17:25:29,15.08836852,9.71e-05,53.2189,10.1435,93.1226,266.9877,0.00083513,0.00013027,0.0,0 STARLINK-3598,1 51897U 22022AX  23119.72603945  .00013027  00000-0  83513-3 0  9996,2 51897  53.2189  10.1435 0000971  93.1226 266.9877 15.08836852 65499,6917.89,95.438,540.427,539.083,0.0
51897.0,STARLINK-3598,PAYLOAD,2023-04-30 02:57:48,15.0884936,9.01e-05,53.2178,8.3588,91.1582,268.9513,0.00026604,3.95e-05,0.0,0 STARLINK-3598,1 51897U 22022AX  23120.12347521  .00003950  00000-0  26604-3 0  9999,2 51897  53.2178   8.3588 0000901  91.1582 268.9513 15.08849360 65555,6917.852,95.437,540.34,539.093,0.0
51897.0,STARLINK-3598,PAYLOAD,2023-04-30 20:27:03,15.08837292,9.93e-05,53.2175,5.0878,76.0168,284.0935,8.0564e-05,9.95e-06,0.0,0 STARLINK-3598,1 51897U 22022AX  23120.85212076  .00000995  00000-0  80564-4 0  9997,2 51897  53.2175   5.0878 0000993  76.0168 284.0935 15.08837292 65661,6917.889,95.438,540.441,539.067,0.0
51897.0,STARLINK-3598,PAYLOAD,2023-05-01 02:48:35,15.0884336,9.41e-05,53.2175,3.8982,83.1704,276.9395,0.00017703,2.531e-05,0.0,0 STARLINK-3598,1 51897U 22022AX  23121.11707889  .00002531  00000-0  17703-3 0  9990,2 51897  53.2175   3.8982 0000941  83.1704 276.9395 15.08843360 65709,6917.87,95.437,540.386,539.084,0.0
51897.0,STARLINK-3598,PAYLOAD,2023-05-01 21:53:13,15.08841158,0.0001039,53.2186,0.3285,78.5564,281.5545,9.2489e-05,1.185e-05,0.0,0 STARLINK-3598,1 51897U 22022AX  23121.91196199  .00001185  00000-0  92489-4 0  9993,2 51897  53.2186   0.3285 0001039  78.5564 281.5545 15.08841158 65825,6917.877,95.437,540.461,539.023,0.0
51897.0,STARLINK-3598,PAYLOAD,2023-05-01 23:28:36,15.08842928,0.0001077,53.2188,0.0311,85.5022,274.6093,0.00011401,1.527e-05,0.0,0 STARLINK-3598,1 51897U 22022AX  23121.97820115  .00001527  00000-0  11401-3 0  9995,2 51897  53.2188   0.0311 0001077  85.5022 274.6093 15.08842928 65831,6917.871,95.437,540.481,538.991,0.0
51897.0,STARLINK-3598,PAYLOAD,2023-05-02 01:03:59,15.08845803,0.0001105,53.2189,359.7335,90.019,270.0929,0.00016079,2.272e-05,0.0,0 STARLINK-3598,1 51897U 22022AX  23122.04443964  .00002272  00000-0  16079-3 0  9991,2 51897  53.2189 359.7335 0001105  90.0190 270.0929 15.08845803 65845,6917.863,95.437,540.492,538.963,0.0
51897.0,STARLINK-3598,PAYLOAD,2023-05-02 21:44:00,15.08843019,9.96e-05,53.2181,355.8662,101.9074,258.203,0.00010131,1.325e-05,0.0,0 STARLINK-3598,1 51897U 22022AX  23122.90556064  .00001325  00000-0  10131-3 0  9993,2 51897  53.2181 355.8662 0000996 101.9074 258.2030 15.08843019 65979,6917.871,95.437,540.425,539.047,0.0
51897.0,STARLINK-3598,PAYLOAD,2023-05-03 00:54:46,15.08845986,0.0001031,53.2183,355.2713,100.4082,259.7026,0.00012533,1.708e-05,0.0,0 STARLINK-3598,1 51897U 22022AX  23123.03803911  .00001708  00000-0  12533-3 0  9997,2 51897  53.2183 355.2713 0001031 100.4082 259.7026 15.08845986 65994,6917.862,95.437,540.44,539.014,0.0
51897.0,STARLINK-3598,PAYLOAD,2023-05-03 08:51:42,15.08841478,9.91e-05,53.2185,353.7842,113.7391,246.3705,6.5957e-05,7.62e-06,0.0,0 STARLINK-3598,1 51897U 22022AX  23123.36924085  .00000762  00000-0  65957-4 0  9997,2 51897  53.2185 353.7842 0000991 113.7391 246.3705 15.08841478 66041,6917.876,95.437,540.426,539.055,0.0
51897.0,STARLINK-3598,PAYLOAD,2023-05-03 21:34:47,15.08842736,0.000109,53.2183,351.4053,103.5177,256.5936,8.6832e-05,1.094e-05,0.0,0 STARLINK-3598,1 51897U 22022AX  23123.89916079  .00001094  00000-0  86832-4 0  9993,2 51897  53.2183 351.4053 0001090 103.5177 256.5936 15.08842736 66124,6917.872,95.437,540.491,538.983,0.0
51897.0,STARLINK-3598,PAYLOAD,2023-05-03 23:10:10,15.08842586,0.0001086,53.2183,351.1082,102.4882,257.6232,8.1634e-05,1.012e-05,0.0,0 STARLINK-3598,1 51897U 22022AX  23123.96540084  .00001012  00000-0  81634-4 0  9995,2 51897  53.2183 351.1082 0001086 102.4882 257.6232 15.08842586 66134,6917.872,95.437,540.489,538.986,0.0
51897.0,STARLINK-3598,PAYLOAD,2023-05-04 08:42:29,15.0884423,0.0001055,53.2191,349.3244,101.1348,258.9763,8.5652e-05,1.076e-05,0.0,0 STARLINK-3598,1 51897U 22022AX  23124.36283920  .00001076  00000-0  85652-4 0  9997,2 51897  53.2191 349.3244 0001055 101.1348 258.9763 15.08844230 66198,6917.867,95.437,540.462,539.003,0.0
51897.0,STARLINK-3598,PAYLOAD,2023-05-04 21:25:34,15.08845128,0.0001062,53.2184,346.9461,99.2856,260.8256,8.2475e-05,1.025e-05,0.0,0 STARLINK-3598,1 51897U 22022AX  23124.89275834  .00001025  00000-0  82475-4 0  9994,2 51897  53.2184 346.9461 0001062  99.2856 260.8256 15.08845128 66278,6917.865,95.437,540.464,538.995,0.0
51897.0,STARLINK-3598,PAYLOAD,2023-05-05 21:16:21,15.08839334,9.16e-05,53.218,342.4869,99.4752,260.6344,4.5877e-05,4.42e-06,0.0,0 STARLINK-3598,1 51897U 22022AX  23125.88636314  .00000442  00000-0  45877-4 0  9995,2 51897  53.2180 342.4869 0000916  99.4752 260.6344 15.08839334 66426,6917.882,95.438,540.381,539.114,0.0
51897.0,STARLINK-3598,PAYLOAD,2023-05-07 00:17:54,15.08847061,8.98e-05,53.2174,337.4323,98.4279,261.6815,5.2102e-05,5.42e-06,0.0,0 STARLINK-3598,1 51897U 22022AX  23127.01243968  .00000542  00000-0  52102-4 0  9991,2 51897  53.2174 337.4323 0000898  98.4279 261.6815 15.08847061 66598,6917.859,95.437,540.345,539.103,0.0
51897.0,STARLINK-3598,PAYLOAD,2023-05-07 20:57:56,15.08835775,8.89e-05,53.2174,333.5676,93.3131,266.7963,7.0571e-05,8.35e-06,0.0,0 STARLINK-3598,1 51897U 22022AX  23127.87356980  .00000835  00000-0  70571-4 0  9999,2 51897  53.2174 333.5676 0000889  93.3131 266.7963 15.08835775 66721,6917.893,95.438,540.373,539.143,0.0
51897.0,STARLINK-3598,PAYLOAD,2023-05-08 20:48:40,15.08875317,8.27e-05,53.2162,329.1094,110.6386,249.4695,0.00034903,5.277e-05,0.0,0 STARLINK-3598,1 51897U 22022AX  23128.86713169  .00005277  00000-0  34903-3 0  9998,2 51897  53.2162 329.1094 0000827 110.6386 249.4695 15.08875317 66872,6917.772,95.435,540.21,539.065,0.0
51897.0,STARLINK-3598,PAYLOAD,2023-05-08 23:59:25,15.08881843,9.01e-05,53.2161,328.5145,108.167,251.942,0.0003909,5.946e-05,0.0,0 STARLINK-3598,1 51897U 22022AX  23128.99960405  .00005946  00000-0  39090-3 0  9994,2 51897  53.2161 328.5145 0000901 108.1670 251.9420 15.08881843 66899,6917.752,95.435,540.241,538.994,0.0
51897.0,STARLINK-3598,PAYLOAD,2023-05-10 06:11:49,15.08829292,9.07e-05,53.218,322.8631,75.4993,284.61,-3.8209e-05,-8.96e-06,0.0,0 STARLINK-3598,1 51897U 22022AX  23130.25821174 -.00000896  00000-0 -38209-4 0  9998,2 51897  53.2180 322.8631 0000907  75.4993 284.6100 15.08829292 67087,6917.913,95.438,540.406,539.151,0.0
